SL-3 R/B                
1 19046U 88032B   26090.19326184  .00005980  00000+0  27714-3 0  9997
2 19046  97.5211  73.3753 0026618 155.2369 205.0150 15.20147864 55370
SL-16 R/B               
1 19120U 88039B   26090.11908176  .00000115  00000+0  77048-4 0  9997
2 19120  71.0171  23.2342 0023726 303.6845  56.2017 14.19619982961420
COSMOS 1953             
1 19210U 88050A   26090.16108971  .00008988  00000+0  31871-3 0  9999
2 19210  82.5073 136.6473 0012214  55.6435 304.5958 15.28860160 41060
SL-8 R/B                
1 19257U 88053B   26090.19954715  .00000418  00000+0  14395-3 0  9993
2 19257  74.0459  72.8130 0021403 249.2383 122.4954 14.38931288979691
COSMOS 1975             
1 19573U 88093A   26090.00517600  .00009697  00000+0  34897-3 0  9993
2 19573  82.5156  96.2776 0013389  95.8934 264.3831 15.28368127 22669
SL-14 R/B               
1 19574U 88093B   26089.87791093  .00000692  00000+0  76816-4 0  9991
2 19574  82.5341  22.1572 0019941 332.0720  88.8698 14.85682161  4161
SL-16 R/B               
1 19650U 88102B   26090.16600016  .00000018  00000+0  33174-4 0  9997
2 19650  70.9969 106.3080 0015216 329.7930  30.2314 14.16153530929933
INTERCOSMOS 24          
1 20261U 89080A   26090.01095089  .00000612  00000+0  18090-3 0  9994
2 20261  82.6013  90.5155 1186913 243.2874 104.2023 12.59585250669484
SL-14 R/B               
1 20262U 89080C   26090.16072169  .00000468  00000+0  13221-3 0  9995
2 20262  82.5952 159.4088 1230904 135.6961 234.9598 12.50514539662830
DELTA 1 R/B             
1 20323U 89089B   26090.14113130  .00000472  00000+0  12516-3 0  9995
2 20323  97.0689 294.1650 0070389  55.5283 305.2538 14.50681126898840
ARIANE 40 R/B           
1 20443U 90005H   26090.14720061  .00000360  00000+0  12787-3 0  9991
2 20443  98.3038 150.1646 0011085 136.1755 224.0315 14.39884795895896
DELTA 2 R/B(1)          
1 20453U 90008B   26090.17056251  .00074748  00000+0  80243-3 0  9994
2 20453  35.6038  33.5807 0077128 100.3695 260.5747 15.58874030929480
