CCSDS_OMM_VERS = 2.0
CREATION_DATE  = 
ORIGINATOR     = 

OBJECT_NAME    = SL-3 R/B
OBJECT_ID      = 1988-032B
CENTER_NAME    = EARTH
REF_FRAME      = TEME
TIME_SYSTEM    = UTC
MEAN_ELEMENT_THEORY = SGP/SGP4

EPOCH          = 2026-03-31T04:38:17.822976
MEAN_MOTION    = 15.20147864
ECCENTRICITY   = .0026618
INCLINATION    = 97.5211
RA_OF_ASC_NODE = 73.3753
ARG_OF_PERICENTER = 155.2369
MEAN_ANOMALY   = 205.0150

EPHEMERIS_TYPE = 0
CLASSIFICATION_TYPE = U
NORAD_CAT_ID   = 19046
ELEMENT_SET_NO = 999
REV_AT_EPOCH   = 5537
BSTAR          = .27714E-3
MEAN_MOTION_DOT = .598E-4
MEAN_MOTION_DDOT = 0

CCSDS_OMM_VERS = 2.0
CREATION_DATE  = 
ORIGINATOR     = 

OBJECT_NAME    = SL-16 R/B
OBJECT_ID      = 1988-039B
CENTER_NAME    = EARTH
REF_FRAME      = TEME
TIME_SYSTEM    = UTC
MEAN_ELEMENT_THEORY = SGP/SGP4

EPOCH          = 2026-03-31T02:51:28.664064
MEAN_MOTION    = 14.19619982
ECCENTRICITY   = .0023726
INCLINATION    = 71.0171
RA_OF_ASC_NODE = 23.2342
ARG_OF_PERICENTER = 303.6845
MEAN_ANOMALY   = 56.2017

EPHEMERIS_TYPE = 0
CLASSIFICATION_TYPE = U
NORAD_CAT_ID   = 19120
ELEMENT_SET_NO = 999
REV_AT_EPOCH   = 96142
BSTAR          = .77048E-4
MEAN_MOTION_DOT = .115E-5
MEAN_MOTION_DDOT = 0

CCSDS_OMM_VERS = 2.0
CREATION_DATE  = 
ORIGINATOR     = 

OBJECT_NAME    = COSMOS 1953
OBJECT_ID      = 1988-050A
CENTER_NAME    = EARTH
REF_FRAME      = TEME
TIME_SYSTEM    = UTC
MEAN_ELEMENT_THEORY = SGP/SGP4

EPOCH          = 2026-03-31T03:51:58.150944
MEAN_MOTION    = 15.28860160
ECCENTRICITY   = .0012214
INCLINATION    = 82.5073
RA_OF_ASC_NODE = 136.6473
ARG_OF_PERICENTER = 55.6435
MEAN_ANOMALY   = 304.5958

EPHEMERIS_TYPE = 0
CLASSIFICATION_TYPE = U
NORAD_CAT_ID   = 19210
ELEMENT_SET_NO = 999
REV_AT_EPOCH   = 4106
BSTAR          = .31871E-3
MEAN_MOTION_DOT = .8988E-4
MEAN_MOTION_DDOT = 0

CCSDS_OMM_VERS = 2.0
CREATION_DATE  = 
ORIGINATOR     = 

OBJECT_NAME    = SL-8 R/B
OBJECT_ID      = 1988-053B
CENTER_NAME    = EARTH
REF_FRAME      = TEME
TIME_SYSTEM    = UTC
MEAN_ELEMENT_THEORY = SGP/SGP4

EPOCH          = 2026-03-31T04:47:20.873760
MEAN_MOTION    = 14.38931288
ECCENTRICITY   = .0021403
INCLINATION    = 74.0459
RA_OF_ASC_NODE = 72.8130
ARG_OF_PERICENTER = 249.2383
MEAN_ANOMALY   = 122.4954

EPHEMERIS_TYPE = 0
CLASSIFICATION_TYPE = U
NORAD_CAT_ID   = 19257
ELEMENT_SET_NO = 999
REV_AT_EPOCH   = 97969
BSTAR          = .14395E-3
MEAN_MOTION_DOT = .418E-5
MEAN_MOTION_DDOT = 0

CCSDS_OMM_VERS = 2.0
CREATION_DATE  = 
ORIGINATOR     = 

OBJECT_NAME    = COSMOS 1975
OBJECT_ID      = 1988-093A
CENTER_NAME    = EARTH
REF_FRAME      = TEME
TIME_SYSTEM    = UTC
MEAN_ELEMENT_THEORY = SGP/SGP4

EPOCH          = 2026-03-31T00:07:27.206400
MEAN_MOTION    = 15.28368127
ECCENTRICITY   = .0013389
INCLINATION    = 82.5156
RA_OF_ASC_NODE = 96.2776
ARG_OF_PERICENTER = 95.8934
MEAN_ANOMALY   = 264.3831

EPHEMERIS_TYPE = 0
CLASSIFICATION_TYPE = U
NORAD_CAT_ID   = 19573
ELEMENT_SET_NO = 999
REV_AT_EPOCH   = 2266
BSTAR          = .34897E-3
MEAN_MOTION_DOT = .9697E-4
MEAN_MOTION_DDOT = 0

CCSDS_OMM_VERS = 2.0
CREATION_DATE  = 
ORIGINATOR     = 

OBJECT_NAME    = SL-14 R/B
OBJECT_ID      = 1988-093B
CENTER_NAME    = EARTH
REF_FRAME      = TEME
TIME_SYSTEM    = UTC
MEAN_ELEMENT_THEORY = SGP/SGP4

EPOCH          = 2026-03-30T21:04:11.504352
MEAN_MOTION    = 14.85682161
ECCENTRICITY   = .0019941
INCLINATION    = 82.5341
RA_OF_ASC_NODE = 22.1572
ARG_OF_PERICENTER = 332.0720
MEAN_ANOMALY   = 88.8698

EPHEMERIS_TYPE = 0
CLASSIFICATION_TYPE = U
NORAD_CAT_ID   = 19574
ELEMENT_SET_NO = 999
REV_AT_EPOCH   = 416
BSTAR          = .76816E-4
MEAN_MOTION_DOT = .692E-5
MEAN_MOTION_DDOT = 0

CCSDS_OMM_VERS = 2.0
CREATION_DATE  = 
ORIGINATOR     = 

OBJECT_NAME    = SL-16 R/B
OBJECT_ID      = 1988-102B
CENTER_NAME    = EARTH
REF_FRAME      = TEME
TIME_SYSTEM    = UTC
MEAN_ELEMENT_THEORY = SGP/SGP4

EPOCH          = 2026-03-31T03:59:02.413824
MEAN_MOTION    = 14.16153530
ECCENTRICITY   = .0015216
INCLINATION    = 70.9969
RA_OF_ASC_NODE = 106.3080
ARG_OF_PERICENTER = 329.7930
MEAN_ANOMALY   = 30.2314

EPHEMERIS_TYPE = 0
CLASSIFICATION_TYPE = U
NORAD_CAT_ID   = 19650
ELEMENT_SET_NO = 999
REV_AT_EPOCH   = 92993
BSTAR          = .33174E-4
MEAN_MOTION_DOT = .18E-6
MEAN_MOTION_DDOT = 0

CCSDS_OMM_VERS = 2.0
CREATION_DATE  = 
ORIGINATOR     = 

OBJECT_NAME    = INTERCOSMOS 24
OBJECT_ID      = 1989-080A
CENTER_NAME    = EARTH
REF_FRAME      = TEME
TIME_SYSTEM    = UTC
MEAN_ELEMENT_THEORY = SGP/SGP4

EPOCH          = 2026-03-31T00:15:46.156896
MEAN_MOTION    = 12.59585250
ECCENTRICITY   = .1186913
INCLINATION    = 82.6013
RA_OF_ASC_NODE = 90.5155
ARG_OF_PERICENTER = 243.2874
MEAN_ANOMALY   = 104.2023

EPHEMERIS_TYPE = 0
CLASSIFICATION_TYPE = U
NORAD_CAT_ID   = 20261
ELEMENT_SET_NO = 999
REV_AT_EPOCH   = 66948
BSTAR          = .1809E-3
MEAN_MOTION_DOT = .612E-5
MEAN_MOTION_DDOT = 0

CCSDS_OMM_VERS = 2.0
CREATION_DATE  = 
ORIGINATOR     = 

OBJECT_NAME    = SL-14 R/B
OBJECT_ID      = 1989-080C
CENTER_NAME    = EARTH
REF_FRAME      = TEME
TIME_SYSTEM    = UTC
MEAN_ELEMENT_THEORY = SGP/SGP4

EPOCH          = 2026-03-31T03:51:26.354016
MEAN_MOTION    = 12.50514539
ECCENTRICITY   = .1230904
INCLINATION    = 82.5952
RA_OF_ASC_NODE = 159.4088
ARG_OF_PERICENTER = 135.6961
MEAN_ANOMALY   = 234.9598

EPHEMERIS_TYPE = 0
CLASSIFICATION_TYPE = U
NORAD_CAT_ID   = 20262
ELEMENT_SET_NO = 999
REV_AT_EPOCH   = 66283
BSTAR          = .13221E-3
MEAN_MOTION_DOT = .468E-5
MEAN_MOTION_DDOT = 0

CCSDS_OMM_VERS = 2.0
CREATION_DATE  = 
ORIGINATOR     = 

OBJECT_NAME    = DELTA 1 R/B
OBJECT_ID      = 1989-089B
CENTER_NAME    = EARTH
REF_FRAME      = TEME
TIME_SYSTEM    = UTC
MEAN_ELEMENT_THEORY = SGP/SGP4

EPOCH          = 2026-03-31T03:23:13.744320
MEAN_MOTION    = 14.50681126
ECCENTRICITY   = .0070389
INCLINATION    = 97.0689
RA_OF_ASC_NODE = 294.1650
ARG_OF_PERICENTER = 55.5283
MEAN_ANOMALY   = 305.2538

EPHEMERIS_TYPE = 0
CLASSIFICATION_TYPE = U
NORAD_CAT_ID   = 20323
ELEMENT_SET_NO = 999
REV_AT_EPOCH   = 89884
BSTAR          = .12516E-3
MEAN_MOTION_DOT = .472E-5
MEAN_MOTION_DDOT = 0

CCSDS_OMM_VERS = 2.0
CREATION_DATE  = 
ORIGINATOR     = 

OBJECT_NAME    = ARIANE 40 R/B
OBJECT_ID      = 1990-005H
CENTER_NAME    = EARTH
REF_FRAME      = TEME
TIME_SYSTEM    = UTC
MEAN_ELEMENT_THEORY = SGP/SGP4

EPOCH          = 2026-03-31T03:31:58.132704
MEAN_MOTION    = 14.39884795
ECCENTRICITY   = .0011085
INCLINATION    = 98.3038
RA_OF_ASC_NODE = 150.1646
ARG_OF_PERICENTER = 136.1755
MEAN_ANOMALY   = 224.0315

EPHEMERIS_TYPE = 0
CLASSIFICATION_TYPE = U
NORAD_CAT_ID   = 20443
ELEMENT_SET_NO = 999
REV_AT_EPOCH   = 89589
BSTAR          = .12787E-3
MEAN_MOTION_DOT = .36E-5
MEAN_MOTION_DDOT = 0

CCSDS_OMM_VERS = 2.0
CREATION_DATE  = 
ORIGINATOR     = 

OBJECT_NAME    = DELTA 2 R/B(1)
OBJECT_ID      = 1990-008B
CENTER_NAME    = EARTH
REF_FRAME      = TEME
TIME_SYSTEM    = UTC
MEAN_ELEMENT_THEORY = SGP/SGP4

EPOCH          = 2026-03-31T04:05:36.600864
MEAN_MOTION    = 15.58874030
ECCENTRICITY   = .0077128
INCLINATION    = 35.6038
RA_OF_ASC_NODE = 33.5807
ARG_OF_PERICENTER = 100.3695
MEAN_ANOMALY   = 260.5747

EPHEMERIS_TYPE = 0
CLASSIFICATION_TYPE = U
NORAD_CAT_ID   = 20453
ELEMENT_SET_NO = 999
REV_AT_EPOCH   = 92948
BSTAR          = .80243E-3
MEAN_MOTION_DOT = .74748E-3
MEAN_MOTION_DDOT = 0

